{
  "type": "FeatureCollection",
  "features": [
    {
      "type": "Feature",
      "properties": {
        "name": "Beijing",
        "kind": "point"
      },
      "geometry": {
        "type": "Point",
        "coordinates": [
          116.4,
          39.9
        ]
      }
    },
    {
      "type": "Feature",
      "properties": {
        "name": "Washington",
        "kind": "point"
      },
      "geometry": {
        "type": "Point",
        "coordinates": [
          -77.0,
          38.9
        ]
      }
    },
    {
      "type": "Feature",
      "properties": {
        "name": "London",
        "kind": "point"
      },
      "geometry": {
        "type": "Point",
        "coordinates": [
          -0.1,
          51.5
        ]
      }
    },
    {
      "type": "Feature",
      "properties": {
        "name": "Paris",
        "kind": "point"
      },
      "geometry": {
        "type": "Point",
        "coordinates": [
          2.3,
          48.9
        ]
      }
    },
    {
      "type": "Feature",
      "properties": {
        "name": "Moscow",
        "kind": "point"
      },
      "geometry": {
        "type": "Point",
        "coordinates": [
          37.6,
          55.8
        ]
      }
    },
    {
      "type": "Feature",
      "properties": {
        "name": "Tokyo",
        "kind": "point"
      },
      "geometry": {
        "type": "Point",
        "coordinates": [
          139.7,
          35.7
        ]
      }
    },
    {
      "type": "Feature",
      "properties": {
        "name": "New Delhi",
        "kind": "point"
      },
      "geometry": {
        "type": "Point",
        "coordinates": [
          77.2,
          28.6
        ]
      }
    },
    {
      "type": "Feature",
      "properties": {
        "name": "Cairo",
        "kind": "point"
      },
      "geometry": {
        "type": "Point",
        "coordinates": [
          31.2,
          30.0
        ]
      }
    },
    {
      "type": "Feature",
      "properties": {
        "name": "Brasilia",
        "kind": "point"
      },
      "geometry": {
        "type": "Point",
        "coordinates": [
          -47.9,
          -15.8
        ]
      }
    },
    {
      "type": "Feature",
      "properties": {
        "name": "Canberra",
        "kind": "point"
      },
      "geometry": {
        "type": "Point",
        "coordinates": [
          149.1,
          -35.3
        ]
      }
    },
    {
      "type": "Feature",
      "properties": {
        "name": "Pretoria",
        "kind": "point"
      },
      "geometry": {
        "type": "Point",
        "coordinates": [
          28.2,
          -25.7
        ]
      }
    },
    {
      "type": "Feature",
      "properties": {
        "name": "Ottawa",
        "kind": "point"
      },
      "geometry": {
        "type": "Point",
        "coordinates": [
          -75.7,
          45.4
        ]
      }
    },
    {
      "type": "Feature",
      "properties": {
        "name": "Mexico City",
        "kind": "point"
      },
      "geometry": {
        "type": "Point",
        "coordinates": [
          -99.1,
          19.4
        ]
      }
    },
    {
      "type": "Feature",
      "properties": {
        "name": "Buenos Aires",
        "kind": "point"
      },
      "geometry": {
        "type": "Point",
        "coordinates": [
          -58.4,
          -34.6
        ]
      }
    },
    {
      "type": "Feature",
      "properties": {
        "name": "Berlin",
        "kind": "point"
      },
      "geometry": {
        "type": "Point",
        "coordinates": [
          13.4,
          52.5
        ]
      }
    },
    {
      "type": "Feature",
      "properties": {
        "name": "Rome",
        "kind": "point"
      },
      "geometry": {
        "type": "Point",
        "coordinates": [
          12.5,
          41.9
        ]
      }
    },
    {
      "type": "Feature",
      "properties": {
        "name": "Jakarta",
        "kind": "point"
      },
      "geometry": {
        "type": "Point",
        "coordinates": [
          106.8,
          -6.2
        ]
      }
    },
    {
      "type": "Feature",
      "properties": {
        "name": "Nairobi",
        "kind": "point"
      },
      "geometry": {
        "type": "Point",
        "coordinates": [
          36.8,
          -1.3
        ]
      }
    },
    {
      "type": "Feature",
      "properties": {
        "name": "Reykjavik",
        "kind": "point"
      },
      "geometry": {
        "type": "Point",
        "coordinates": [
          -21.9,
          64.1
        ]
      }
    },
    {
      "type": "Feature",
      "properties": {
        "name": "Wellington",
        "kind": "point"
      },
      "geometry": {
        "type": "Point",
        "coordinates": [
          174.8,
          -41.3
        ]
      }
    }
  ]
}
