{
  "type": "FeatureCollection",
  "features": [
    {
      "type": "Feature",
      "properties": {"name": "North America", "kind": "polygon"},
      "geometry": {
        "type": "Polygon",
        "coordinates": [[
          [-168, 65], [-141, 70], [-105, 73], [-84, 73], [-56, 52],
          [-67, 45], [-74, 40], [-80, 25], [-97, 26], [-106, 22],
          [-110, 24], [-117, 33], [-125, 49], [-130, 55], [-153, 58],
          [-166, 64], [-168, 65]
        ]]
      }
    },
    {
      "type": "Feature",
      "properties": {"name": "South America", "kind": "polygon"},
      "geometry": {
        "type": "Polygon",
        "coordinates": [[
          [-81, 8], [-77, 8], [-70, 12], [-60, 8], [-50, 0],
          [-35, -7], [-39, -23], [-48, -25], [-53, -34], [-68, -55],
          [-75, -52], [-71, -18], [-81, -5], [-81, 8]
        ]]
      }
    },
    {
      "type": "Feature",
      "properties": {"name": "Europe", "kind": "polygon"},
      "geometry": {
        "type": "Polygon",
        "coordinates": [[
          [-10, 36], [-9, 43], [-5, 48], [-6, 58], [2, 53],
          [8, 57], [12, 66], [25, 71], [32, 70], [30, 60],
          [28, 45], [19, 40], [12, 38], [-5, 36], [-10, 36]
        ]]
      }
    },
    {
      "type": "Feature",
      "properties": {"name": "Africa", "kind": "polygon"},
      "geometry": {
        "type": "Polygon",
        "coordinates": [[
          [-17, 15], [-16, 22], [-9, 32], [10, 37], [25, 32],
          [32, 31], [43, 12], [51, 12], [43, -1], [41, -16],
          [32, -29], [20, -35], [18, -34], [12, -17], [13, -6],
          [8, 4], [-5, 5], [-12, 7], [-17, 15]
        ]]
      }
    },
    {
      "type": "Feature",
      "properties": {"name": "Asia", "kind": "polygon"},
      "geometry": {
        "type": "Polygon",
        "coordinates": [[
          [26, 41], [36, 36], [36, 30], [44, 13], [51, 25],
          [60, 25], [77, 8], [98, 8], [104, 1], [122, 7],
          [122, 18], [125, 38], [128, 35], [142, 46], [163, 60],
          [180, 66], [180, 71], [140, 73], [80, 75], [45, 68],
          [40, 60], [30, 60], [28, 45], [26, 41]
        ]]
      }
    },
    {
      "type": "Feature",
      "properties": {"name": "Australia", "kind": "polygon"},
      "geometry": {
        "type": "Polygon",
        "coordinates": [[
          [113, -22], [114, -34], [129, -32], [137, -35], [141, -38],
          [150, -38], [153, -28], [153, -25], [145, -15], [142, -11],
          [132, -12], [122, -17], [113, -22]
        ]]
      }
    },
    {
      "type": "Feature",
      "properties": {"name": "Antarctica", "kind": "polygon"},
      "geometry": {
        "type": "Polygon",
        "coordinates": [[
          [-180, -63], [-120, -65], [-60, -63], [0, -67], [60, -67],
          [120, -66], [180, -70], [180, -82], [-180, -82], [-180, -63]
        ]]
      }
    },
    {
      "type": "Feature",
      "properties": {"name": "Greenland", "kind": "polygon"},
      "geometry": {
        "type": "Polygon",
        "coordinates": [[
          [-73, 76], [-60, 82], [-22, 81], [-22, 70], [-44, 60],
          [-53, 60], [-73, 76]
        ]]
      }
    },
    {
      "type": "Feature",
      "properties": {"name": "Madagascar", "kind": "polygon"},
      "geometry": {
        "type": "Polygon",
        "coordinates": [[
          [44, -12], [50, -12], [50, -26], [44, -25], [44, -12]
        ]]
      }
    },
    {
      "type": "Feature",
      "properties": {"name": "Japan", "kind": "polygon"},
      "geometry": {
        "type": "Polygon",
        "coordinates": [[
          [129, 31], [131, 31], [142, 41], [145, 43], [141, 45],
          [140, 41], [131, 34], [129, 31]
        ]]
      }
    },
    {
      "type": "Feature",
      "properties": {"name": "British Isles", "kind": "polygon"},
      "geometry": {
        "type": "Polygon",
        "coordinates": [[
          [-8, 50], [-6, 50], [-1, 51], [1, 53], [-2, 58],
          [-5, 58], [-5, 55], [-8, 50]
        ]]
      }
    },
    {
      "type": "Feature",
      "properties": {"name": "New Zealand", "kind": "polygon"},
      "geometry": {
        "type": "Polygon",
        "coordinates": [[
          [166, -35], [173, -35], [178, -38], [176, -47], [167, -46],
          [172, -41], [166, -35]
        ]]
      }
    }
  ]
}
