{
  "type": "FeatureCollection",
  "features": [
    {
      "type": "Feature",
      "properties": {
        "name": "meridian -180",
        "kind": "line"
      },
      "geometry": {
        "type": "LineString",
        "coordinates": [
          [
            -180.0,
            -80.0
          ],
          [
            -180.0,
            80.0
          ]
        ]
      }
    },
    {
      "type": "Feature",
      "properties": {
        "name": "meridian -150",
        "kind": "line"
      },
      "geometry": {
        "type": "LineString",
        "coordinates": [
          [
            -150.0,
            -80.0
          ],
          [
            -150.0,
            80.0
          ]
        ]
      }
    },
    {
      "type": "Feature",
      "properties": {
        "name": "meridian -120",
        "kind": "line"
      },
      "geometry": {
        "type": "LineString",
        "coordinates": [
          [
            -120.0,
            -80.0
          ],
          [
            -120.0,
            80.0
          ]
        ]
      }
    },
    {
      "type": "Feature",
      "properties": {
        "name": "meridian -90",
        "kind": "line"
      },
      "geometry": {
        "type": "LineString",
        "coordinates": [
          [
            -90.0,
            -80.0
          ],
          [
            -90.0,
            80.0
          ]
        ]
      }
    },
    {
      "type": "Feature",
      "properties": {
        "name": "meridian -60",
        "kind": "line"
      },
      "geometry": {
        "type": "LineString",
        "coordinates": [
          [
            -60.0,
            -80.0
          ],
          [
            -60.0,
            80.0
          ]
        ]
      }
    },
    {
      "type": "Feature",
      "properties": {
        "name": "meridian -30",
        "kind": "line"
      },
      "geometry": {
        "type": "LineString",
        "coordinates": [
          [
            -30.0,
            -80.0
          ],
          [
            -30.0,
            80.0
          ]
        ]
      }
    },
    {
      "type": "Feature",
      "properties": {
        "name": "meridian 0",
        "kind": "line"
      },
      "geometry": {
        "type": "LineString",
        "coordinates": [
          [
            0.0,
            -80.0
          ],
          [
            0.0,
            80.0
          ]
        ]
      }
    },
    {
      "type": "Feature",
      "properties": {
        "name": "meridian 30",
        "kind": "line"
      },
      "geometry": {
        "type": "LineString",
        "coordinates": [
          [
            30.0,
            -80.0
          ],
          [
            30.0,
            80.0
          ]
        ]
      }
    },
    {
      "type": "Feature",
      "properties": {
        "name": "meridian 60",
        "kind": "line"
      },
      "geometry": {
        "type": "LineString",
        "coordinates": [
          [
            60.0,
            -80.0
          ],
          [
            60.0,
            80.0
          ]
        ]
      }
    },
    {
      "type": "Feature",
      "properties": {
        "name": "meridian 90",
        "kind": "line"
      },
      "geometry": {
        "type": "LineString",
        "coordinates": [
          [
            90.0,
            -80.0
          ],
          [
            90.0,
            80.0
          ]
        ]
      }
    },
    {
      "type": "Feature",
      "properties": {
        "name": "meridian 120",
        "kind": "line"
      },
      "geometry": {
        "type": "LineString",
        "coordinates": [
          [
            120.0,
            -80.0
          ],
          [
            120.0,
            80.0
          ]
        ]
      }
    },
    {
      "type": "Feature",
      "properties": {
        "name": "meridian 150",
        "kind": "line"
      },
      "geometry": {
        "type": "LineString",
        "coordinates": [
          [
            150.0,
            -80.0
          ],
          [
            150.0,
            80.0
          ]
        ]
      }
    },
    {
      "type": "Feature",
      "properties": {
        "name": "meridian 180",
        "kind": "line"
      },
      "geometry": {
        "type": "LineString",
        "coordinates": [
          [
            180.0,
            -80.0
          ],
          [
            180.0,
            80.0
          ]
        ]
      }
    },
    {
      "type": "Feature",
      "properties": {
        "name": "parallel -60",
        "kind": "line"
      },
      "geometry": {
        "type": "LineString",
        "coordinates": [
          [
            -180.0,
            -60.0
          ],
          [
            180.0,
            -60.0
          ]
        ]
      }
    },
    {
      "type": "Feature",
      "properties": {
        "name": "parallel -30",
        "kind": "line"
      },
      "geometry": {
        "type": "LineString",
        "coordinates": [
          [
            -180.0,
            -30.0
          ],
          [
            180.0,
            -30.0
          ]
        ]
      }
    },
    {
      "type": "Feature",
      "properties": {
        "name": "parallel 0",
        "kind": "line"
      },
      "geometry": {
        "type": "LineString",
        "coordinates": [
          [
            -180.0,
            0.0
          ],
          [
            180.0,
            0.0
          ]
        ]
      }
    },
    {
      "type": "Feature",
      "properties": {
        "name": "parallel 30",
        "kind": "line"
      },
      "geometry": {
        "type": "LineString",
        "coordinates": [
          [
            -180.0,
            30.0
          ],
          [
            180.0,
            30.0
          ]
        ]
      }
    },
    {
      "type": "Feature",
      "properties": {
        "name": "parallel 60",
        "kind": "line"
      },
      "geometry": {
        "type": "LineString",
        "coordinates": [
          [
            -180.0,
            60.0
          ],
          [
            180.0,
            60.0
          ]
        ]
      }
    },
    {
      "type": "Feature",
      "properties": {
        "name": "equator",
        "kind": "line"
      },
      "geometry": {
        "type": "LineString",
        "coordinates": [
          [
            -180.0,
            0.0
          ],
          [
            180.0,
            0.0
          ]
        ]
      }
    },
    {
      "type": "Feature",
      "properties": {
        "name": "prime meridian",
        "kind": "line"
      },
      "geometry": {
        "type": "LineString",
        "coordinates": [
          [
            0.0,
            -80.0
          ],
          [
            0.0,
            80.0
          ]
        ]
      }
    }
  ]
}
